SCS-01 J                
1 63990U 25100J   26162.91787316  .00021380  00000+0  70549-3 0  9995
2 63990  97.3631 238.6587 0006882 310.8874  49.1770 15.31418872 60006
SCS-01 K                
1 63991U 25100K   26162.92574458  .00012486  00000+0  57697-3 0  9994
2 63991  97.3641 235.8253 0009510 350.5927   9.5129 15.20278859 59821
SCS-01 L                
1 63992U 25100L   26162.92695130  .00012170  00000+0  56265-3 0  9996
2 63992  97.3672 235.9759 0008453 334.2817  25.7996 15.20277239 59812
SCS-01 M                
1 63993U 25100M   26162.91598644  .00027715  00000+0  81398-3 0  9994
2 63993  97.3666 239.2871 0007038 327.0870  32.9935 15.35080375 60044
STARLINK-33871          
1 63994U 25101A   26161.81376430  .00019917  00000+0  73089-3 0  9994
2 63994  42.9995 192.3691 0003916 265.2789  94.7615 15.27595219 61229
STARLINK-34154          
1 63995U 25101B   26162.37398346  .00013089  00000+0  48421-3 0  9993
2 63995  42.9988 188.8343 0001342 116.6960 243.4029 15.27587149 61389
STARLINK-34158          
1 63996U 25101C   26162.36628650  .00006937  00000+0  26141-3 0  9996
2 63996  43.0039 188.8149 0000805 256.7449 103.3313 15.27576310 61382
STARLINK-34165          
1 63997U 25101D   26161.37391501  .00014492  00000+0  53502-3 0  9995
2 63997  42.9983 194.2274 0000400 257.5400 102.5407 15.27586110 61234
STARLINK-34150          
1 63998U 25101E   26161.80606083  .00018263  00000+0  67090-3 0  9995
2 63998  43.0017 192.3177 0003126 288.4642  71.5869 15.27608600 61297
STARLINK-34169          
1 63999U 25101F   26162.36500516  .00018357  00000+0  67553-3 0  9990
2 63999  42.9992 188.7641 0000755 261.4617  98.6149 15.27550638 61389
STARLINK-34152          
1 64000U 25101G   26162.37141557  .00015133  00000+0  55816-3 0  9999
2 64000  43.0073 188.8139 0000347 266.1598  93.9214 15.27588816 61385
STARLINK-33927          
1 64001U 25101H   26161.36506270  .00011552  00000+0  42838-3 0  9996
2 64001  42.9975 195.0213 0000791 261.4060  98.6702 15.27601864 61229
STARLINK-33898          
1 64002U 25101J   26161.81505153  .00017791  00000+0  65366-3 0  9998
2 64002  43.0078 192.3900 0004379 285.1244  74.9124 15.27615830 61292
STARLINK-33928          
1 64003U 25101K   26162.34956882  .00016585  00000+0  61061-3 0  9995
2 64003  43.0014 188.6473 0000259 198.0359 162.0483 15.27592378 61386
STARLINK-33758          
1 64004U 25101L   26161.79706512  .00021268  00000+0  77968-3 0  9994
2 64004  43.0020 192.2424 0002415 270.0123  90.0452 15.27598524 61292
STARLINK-33936          
1 64005U 25101M   26161.78038472  .00012128  00000+0  44948-3 0  9994
2 64005  42.9976 192.1128 0001683 281.1076  78.9586 15.27582999 61299
STARLINK-33931          
1 64006U 25101N   26162.35085478  .00011805  00000+0  43772-3 0  9992
2 64006  42.9968 188.6520 0001086 264.2375  95.8353 15.27586968 61401
STARLINK-33759          
1 64007U 25101P   26160.79185878  .00023875  00000+0  87424-3 0  9996
2 64007  42.9976 197.5909 0002002 275.0407  85.0216 15.27582187 61145
STARLINK-34163          
1 64008U 25101Q   26161.80220569  .00015936  00000+0  58727-3 0  9990
2 64008  43.0018 192.2777 0003215 256.5314 103.5179 15.27582723 61294
STARLINK-34077          
1 64009U 25101R   26161.77136855  .00018648  00000+0  68501-3 0  9995
2 64009  42.9956 192.0395 0002274 279.2690  80.7905 15.27599715 61293
STARLINK-34113          
1 64010U 25101S   26161.80991636  .00017675  00000+0  64997-3 0  9991
2 64010  42.9987 192.3392 0002184 265.2777  94.7826 15.27594468 61297
STARLINK-34193          
1 64011U 25101T   26161.80862785  .00016154  00000+0  59507-3 0  9996
2 64011  42.9956 192.3312 0003200 271.4375  88.6110 15.27588544 61295
STARLINK-34078          
1 64012U 25101U   26162.35727795  .00010384  00000+0  38627-3 0  9998
2 64012  43.0035 188.7011 0000852 281.4512  78.6244 15.27586516 61389
STARLINK-34182          
1 64013U 25101V   26162.53095131  .00011468  00000+0  42572-3 0  9999
2 64013  43.0048 184.8260 0004440 257.2284 102.8072 15.27567037 61444
STARLINK-34192          
1 64014U 25101W   26162.34072166  .00011522  00000+0  42740-3 0  9990
2 64014  43.0055 189.4436 0003548 281.0967  78.9485 15.27589645 61372
STARLINK-34093          
1 64015U 25101X   26161.77523927  .00021537  00000+0  78932-3 0  9992
2 64015  43.0124 192.0728 0000140 241.1283 118.9555 15.27602913 61295
STARLINK-34016          
1 64016U 25101Y   26162.94702852  .00009979  00000+0  37146-3 0  9997
2 64016  42.9983 185.3829 0002480 324.9241  35.1447 15.27595865 61474
STARLINK-34161          
1 64017U 25101Z   26161.77907572  .00017467  00000+0  64245-3 0  9995
2 64017  42.9900 192.0937 0002134 280.2283  79.8328 15.27594922 61291
STARLINK-34162          
1 64018U 25101AA  26162.38041039  .00014274  00000+0  52712-3 0  9990
2 64018  43.0008 188.8724 0001302 267.8487  92.2216 15.27587107 61385
STARLINK-34155          
1 64019U 25101AB  26161.79963888  .00020465  00000+0  75080-3 0  9992
2 64019  43.0003 192.2564 0002278 268.6161  91.4430 15.27593455 61295
