OBJECT_NAME,OBJECT_ID,EPOCH,MEAN_MOTION,ECCENTRICITY,INCLINATION,RA_OF_ASC_NODE,ARG_OF_PERICENTER,MEAN_ANOMALY,EPHEMERIS_TYPE,CLASSIFICATION_TYPE,NORAD_CAT_ID,ELEMENT_SET_NO,REV_AT_EPOCH,BSTAR,MEAN_MOTION_DOT,MEAN_MOTION_DDOT
SCS-01 J,2025-100J,2026-06-11T22:01:44.241024,15.31418872,.00068829,97.3631,238.6587,310.8874,49.1770,0,U,63990,999,6000,.70548927E-3,.2138E-3,0
SCS-01 K,2025-100K,2026-06-11T22:13:04.331712,15.20278859,.000951,97.3641,235.8253,350.5927,9.5129,0,U,63991,999,5982,.57697331E-3,.12486E-3,0
SCS-01 L,2025-100L,2026-06-11T22:14:48.592320,15.20277239,.0008453,97.3672,235.9759,334.2817,25.7996,0,U,63992,999,5981,.56264716E-3,.1217E-3,0
SCS-01 M,2025-100M,2026-06-11T21:59:01.228416,15.35080375,.00070381,97.3666,239.2871,327.0870,32.9935,0,U,63993,999,6004,.81397534E-3,.27715E-3,0
STARLINK-33871,2025-101A,2026-06-10T19:31:49.235520,15.27595219,.00039166,42.9995,192.3691,265.2789,94.7615,0,U,63994,999,6122,.73088893E-3,.19917E-3,0
STARLINK-34154,2025-101B,2026-06-11T08:58:32.170944,15.27587149,.0001342,42.9988,188.8343,116.6960,243.4029,0,U,63995,999,6138,.48421E-3,.13089E-3,0
STARLINK-34158,2025-101C,2026-06-11T08:47:27.153600,15.27576310,.0000805,43.0039,188.8149,256.7449,103.3313,0,U,63996,999,6138,.26141E-3,.6937E-4,0
STARLINK-34165,2025-101D,2026-06-10T08:58:26.256864,15.27586110,.00004002,42.9983,194.2274,257.5400,102.5407,0,U,63997,999,6123,.53501992E-3,.14492E-3,0
STARLINK-34150,2025-101E,2026-06-10T19:20:43.655712,15.27608600,.00031264,43.0017,192.3177,288.4642,71.5869,0,U,63998,999,6129,.67090176E-3,.18263E-3,0
STARLINK-34169,2025-101F,2026-06-11T08:45:36.445824,15.27550638,.0000755,42.9992,188.7641,261.4617,98.6149,0,U,63999,999,6138,.67553E-3,.18357E-3,0
STARLINK-34152,2025-101G,2026-06-11T08:54:50.305248,15.27588816,.0000347,43.0073,188.8139,266.1598,93.9214,0,U,64000,999,6138,.55816E-3,.15133E-3,0
STARLINK-33927,2025-101H,2026-06-10T08:45:41.417280,15.27601864,.00007911,42.9975,195.0213,261.4060,98.6702,0,U,64001,999,6122,.42838026E-3,.11552E-3,0
STARLINK-33898,2025-101J,2026-06-10T19:33:40.452192,15.27615830,.00043798,43.0078,192.3900,285.1244,74.9124,0,U,64002,999,6129,.65366061E-3,.17791E-3,0
STARLINK-33928,2025-101K,2026-06-11T08:23:22.746048,15.27592378,.0000259,43.0014,188.6473,198.0359,162.0483,0,U,64003,999,6138,.61061E-3,.16585E-3,0
STARLINK-33758,2025-101L,2026-06-10T19:07:46.426368,15.27598524,.00024151,43.0020,192.2424,270.0123,90.0452,0,U,64004,999,6129,.77968351E-3,.21268E-3,0
STARLINK-33936,2025-101M,2026-06-10T18:43:45.239808,15.27582999,.00016834,42.9976,192.1128,281.1076,78.9586,0,U,64005,999,6129,.44948425E-3,.12128E-3,0
STARLINK-33931,2025-101N,2026-06-11T08:25:13.852992,15.27586968,.0001086,42.9968,188.6520,264.2375,95.8353,0,U,64006,999,6140,.43772E-3,.11805E-3,0
STARLINK-33759,2025-101P,2026-06-09T19:00:16.598592,15.27582187,.00020029,42.9976,197.5909,275.0407,85.0216,0,U,64007,999,6114,.87424047E-3,.23875E-3,0
STARLINK-34163,2025-101Q,2026-06-10T19:15:10.571616,15.27582723,.00032157,43.0018,192.2777,256.5314,103.5179,0,U,64008,999,6129,.58726815E-3,.15936E-3,0
STARLINK-34077,2025-101R,2026-06-10T18:30:46.242720,15.27599715,.00022741,42.9956,192.0395,279.2690,80.7905,0,U,64009,999,6129,.68501139E-3,.18648E-3,0
STARLINK-34113,2025-101S,2026-06-10T19:26:16.773504,15.27594468,.00021847,42.9987,192.3392,265.2777,94.7826,0,U,64010,999,6129,.64997248E-3,.17675E-3,0
STARLINK-34193,2025-101T,2026-06-10T19:24:25.446240,15.27588544,.00032001,42.9956,192.3312,271.4375,88.6110,0,U,64011,999,6129,.59507397E-3,.16154E-3,0
STARLINK-34078,2025-101U,2026-06-11T08:34:28.814880,15.27586516,.0000852,43.0035,188.7011,281.4512,78.6244,0,U,64012,999,6138,.38627E-3,.10384E-3,0
STARLINK-34182,2025-101V,2026-06-11T12:44:34.193184,15.27567037,.000444,43.0048,184.8260,257.2284,102.8072,0,U,64013,999,6144,.42572E-3,.11468E-3,0
STARLINK-34192,2025-101W,2026-06-11T08:10:38.351424,15.27589645,.0003548,43.0055,189.4436,281.0967,78.9485,0,U,64014,999,6137,.4274E-3,.11522E-3,0
STARLINK-34093,2025-101X,2026-06-10T18:36:20.672928,15.27602913,.00001404,43.0124,192.0728,241.1283,118.9555,0,U,64015,999,6129,.78932408E-3,.21537E-3,0
STARLINK-34016,2025-101Y,2026-06-11T22:43:43.264128,15.27595865,.00024802,42.9983,185.3829,324.9241,35.1447,0,U,64016,999,6147,.37146369E-3,.9979E-4,0
STARLINK-34161,2025-101Z,2026-06-10T18:41:52.142208,15.27594922,.0002134,42.9900,192.0937,280.2283,79.8328,0,U,64017,999,6129,.64245057E-3,.17467E-3,0
STARLINK-34162,2025-101AA,2026-06-11T09:07:47.457696,15.27587107,.0001302,43.0008,188.8724,267.8487,92.2216,0,U,64018,999,6138,.52712E-3,.14274E-3,0
STARLINK-34155,2025-101AB,2026-06-10T19:11:28.799232,15.27593455,.00022784,43.0003,192.2564,268.6161,91.4430,0,U,64019,999,6129,.75080102E-3,.20465E-3,0
